STARLINK-30339
1 57882U 23144U   26061.16668981  .01333640  00000+0  58324-1 0  9996
2 57882  43.0006 327.5154 0001462 270.1440 275.3015 15.18578643  5818
